OBJECT_NAME,OBJECT_ID,EPOCH,MEAN_MOTION,ECCENTRICITY,INCLINATION,RA_OF_ASC_NODE,ARG_OF_PERICENTER,MEAN_ANOMALY,EPHEMERIS_TYPE,CLASSIFICATION_TYPE,NORAD_CAT_ID,ELEMENT_SET_NO,REV_AT_EPOCH,BSTAR,MEAN_MOTION_DOT,MEAN_MOTION_DDOT
STARLINK-37555,2026-126M,2026-07-11T14:15:20.543328,15.75228043,.0000945,97.2840,53.8609,61.1132,299.0228,0,U,69431,999,664,.4145E-3,.62248E-3,0
STARLINK-37870,2026-126N,2026-07-11T14:10:15.820896,15.75194731,.0001075,97.2834,53.8667,37.0149,323.1190,0,U,69432,999,659,.9179E-3,.13906E-2,0
STARLINK-37872,2026-126P,2026-07-11T13:48:24.694848,15.75199381,.0001295,97.2840,53.8872,22.6371,337.4951,0,U,69433,999,659,.11261E-2,.171312E-2,0
STARLINK-37815,2026-126Q,2026-07-11T13:28:34.900320,15.75223314,.0002494,97.2847,53.7510,117.7255,242.4263,0,U,69434,999,658,.11655E-2,.177637E-2,0
STARLINK-37801,2026-126R,2026-07-11T14:39:44.491104,15.75185479,.0003077,97.2839,53.8373,340.2217,19.8928,0,U,69435,999,664,.11704E-2,.178127E-2,0
STARLINK-37800,2026-126S,2026-07-11T14:42:47.175264,15.75192024,.0001046,97.2852,53.8344,10.5758,349.5529,0,U,69436,999,659,.8822E-3,.133543E-2,0
STARLINK-37792,2026-126T,2026-07-11T18:14:12.907104,15.75195198,.0001205,97.2822,54.0941,24.1821,335.9500,0,U,69437,999,667,.87594E-3,.132598E-2,0
STARLINK-37783,2026-126U,2026-07-11T13:51:27.809280,15.75190465,.0000621,97.2848,53.8827,30.6157,329.5144,0,U,69438,999,664,.10256E-2,.155672E-2,0
STARLINK-37747,2026-126W,2026-07-11T14:21:26.747136,15.75189362,.0001136,97.2851,53.8602,13.4202,346.7093,0,U,69440,999,659,.78682E-3,.118872E-2,0
STARLINK-37629,2026-127A,2026-07-11T08:27:14.763744,15.75224505,.00021225,53.1583,142.3149,47.7504,312.3696,0,U,69443,999,521,.10313551E-2,.16039E-2,0
STARLINK-37509,2026-127B,2026-07-11T09:52:32.951136,15.75421542,.00008271,53.1595,141.9769,96.2355,263.8760,0,U,69444,999,522,.12692678E-2,.200187E-2,0
STARLINK-37641,2026-127C,2026-07-11T11:03:49.477248,15.75235225,.0001021,53.1564,141.5628,66.4199,293.6929,0,U,69445,999,523,.10787969E-2,.168023E-2,0
STARLINK-37522,2026-127D,2026-07-11T06:49:20.802720,15.75244123,.00016137,53.1593,142.6020,86.8337,273.2868,0,U,69446,999,520,.57386893E-3,.88271E-3,0
STARLINK-37640,2026-127E,2026-07-11T03:07:24.083040,15.75271999,.00005646,53.1567,143.0505,310.8174,49.2798,0,U,69447,999,518,.10897526E-2,.170052E-2,0
STARLINK-37572,2026-127F,2026-07-11T08:08:06.455904,15.75228801,.00013049,53.1573,142.2248,115.3390,244.7766,0,U,69448,999,521,.12661114E-2,.19796E-2,0
STARLINK-37643,2026-127G,2026-07-11T06:43:16.821984,15.75278896,.00008205,53.1576,142.5717,105.3680,254.7431,0,U,69449,999,520,.10735226E-2,.167508E-2,0
STARLINK-37601,2026-127H,2026-07-11T11:16:53.888160,15.75236647,.00013634,53.1579,141.6256,63.4056,296.7104,0,U,69450,999,523,.98942468E-3,.153799E-2,0
STARLINK-37578,2026-127J,2026-07-11T03:20:28.843008,15.75335437,.00027722,53.1582,143.1045,33.5534,326.5662,0,U,69451,999,518,.91687309E-3,.14292E-2,0
STARLINK-37500,2026-127L,2026-07-11T19:59:25.895904,15.75311029,.0001465,53.1556,139.6094,126.5132,233.6023,0,U,69453,999,529,.13752E-2,.216322E-2,0
STARLINK-37642,2026-127N,2026-07-11T10:57:45.684000,15.75261251,.00005653,53.1549,141.5344,72.0121,288.0961,0,U,69455,999,523,.26125506E-2,.420859E-2,0
STARLINK-37513,2026-127P,2026-07-11T08:07:29.742816,15.75233944,.00012136,53.1580,141.4805,97.5181,262.5978,0,U,69456,999,522,.12392028E-2,.193683E-2,0
STARLINK-37563,2026-127Q,2026-07-11T09:06:46.971648,15.75341887,.000133,53.1584,141.7568,77.3260,282.7909,0,U,69457,999,522,.13697162E-2,.215729E-2,0
STARLINK-37565,2026-127R,2026-07-11T21:04:08.163264,15.75326303,.0001922,53.1561,139.1697,116.1680,243.9538,0,U,69458,999,530,.1241E-2,.194775E-2,0
STARLINK-37384,2026-127T,2026-07-11T21:10:40.785600,15.75373230,.0001284,53.1580,139.2003,122.6778,237.4367,0,U,69460,999,530,.16042E-2,.254288E-2,0
STARLINK-37707,2026-127U,2026-07-11T05:50:59.648352,15.75290685,.00008886,53.1587,142.3254,74.9556,285.1563,0,U,69461,999,520,.13364467E-2,.209857E-2,0
