STARLINK-37555          
1 69431U 26126M   26192.59398777  .00062248  00000+0  41450-3 0  9993
2 69431  97.2840  53.8609 0000944  61.1132 299.0228 15.75228043  6642
STARLINK-37870          
1 69432U 26126N   26192.59046090  .00139060  00000+0  91790-3 0  9991
2 69432  97.2834  53.8667 0001075  37.0149 323.1190 15.75194731  6593
STARLINK-37872          
1 69433U 26126P   26192.57528583  .00171312  00000+0  11261-2 0  9992
2 69433  97.2840  53.8872 0001294  22.6371 337.4951 15.75199381  6598
STARLINK-37815          
1 69434U 26126Q   26192.56151505  .00177637  00000+0  11655-2 0  9991
2 69434  97.2847  53.7510 0002494 117.7255 242.4263 15.75223314  6588
STARLINK-37801          
1 69435U 26126R   26192.61093162  .00178127  00000+0  11704-2 0  9992
2 69435  97.2839  53.8373 0003076 340.2217  19.8928 15.75185479  6646
STARLINK-37800          
1 69436U 26126S   26192.61304601  .00133543  00000+0  88220-3 0  9997
2 69436  97.2852  53.8344 0001046  10.5758 349.5529 15.75192024  6590
STARLINK-37792          
1 69437U 26126T   26192.75987162  .00132598  00000+0  87594-3 0  9994
2 69437  97.2822  54.0941 0001205  24.1821 335.9500 15.75195198  6675
STARLINK-37783          
1 69438U 26126U   26192.57740520  .00155672  00000+0  10256-2 0  9998
2 69438  97.2848  53.8827 0000620  30.6157 329.5144 15.75190465  6640
STARLINK-37747          
1 69440U 26126W   26192.59822624  .00118872  00000+0  78682-3 0  9998
2 69440  97.2851  53.8602 0001135  13.4202 346.7093 15.75189362  6592
STARLINK-37629          
1 69443U 26127A   26192.35225421  .00160390  00000+0  10314-2 0  9997
2 69443  53.1583 142.3149 0002122  47.7504 312.3696 15.75224505  5215
STARLINK-37509          
1 69444U 26127B   26192.41149249  .00200187  00000+0  12693-2 0  9999
2 69444  53.1595 141.9769 0000827  96.2355 263.8760 15.75421542  5228
STARLINK-37641          
1 69445U 26127C   26192.46098932  .00168023  00000+0  10788-2 0  9992
2 69445  53.1564 141.5628 0001021  66.4199 293.6929 15.75235225  5237
STARLINK-37522          
1 69446U 26127D   26192.28426855  .00088271  00000+0  57387-3 0  9995
2 69446  53.1593 142.6020 0001613  86.8337 273.2868 15.75244123  5205
STARLINK-37640          
1 69447U 26127E   26192.13013985  .00170052  00000+0  10898-2 0  9990
2 69447  53.1567 143.0505 0000564 310.8174  49.2798 15.75271999  5184
STARLINK-37572          
1 69448U 26127F   26192.33896361  .00197960  00000+0  12661-2 0  9997
2 69448  53.1573 142.2248 0001304 115.3390 244.7766 15.75228801  5213
STARLINK-37643          
1 69449U 26127G   26192.28005581  .00167508  00000+0  10735-2 0  9993
2 69449  53.1576 142.5717 0000820 105.3680 254.7431 15.75278896  5202
STARLINK-37601          
1 69450U 26127H   26192.47006815  .00153799  00000+0  98942-3 0  9991
2 69450  53.1579 141.6256 0001363  63.4056 296.7104 15.75236647  5233
STARLINK-37578          
1 69451U 26127J   26192.13922272  .00142920  00000+0  91687-3 0  9992
2 69451  53.1582 143.1045 0002772  33.5534 326.5662 15.75335437  5187
STARLINK-37500          
1 69453U 26127L   26192.83293862  .00216322  00000+0  13752-2 0  9991
2 69453  53.1556 139.6094 0001464 126.5132 233.6023 15.75311029  5290
STARLINK-37642          
1 69455U 26127N   26192.45677875  .00420859  00000+0  26126-2 0  9992
2 69455  53.1549 141.5344 0000565  72.0121 288.0961 15.75261251  5238
STARLINK-37513          
1 69456U 26127P   26192.33853869  .00193683  00000+0  12392-2 0  9991
2 69456  53.1580 141.4805 0001213  97.5181 262.5978 15.75233944  5226
STARLINK-37563          
1 69457U 26127Q   26192.37971032  .00215729  00000+0  13697-2 0  9994
2 69457  53.1584 141.7568 0001330  77.3260 282.7909 15.75341887  5228
STARLINK-37565          
1 69458U 26127R   26192.87787226  .00194775  00000+0  12410-2 0  9999
2 69458  53.1561 139.1697 0001921 116.1680 243.9538 15.75326303  5304
STARLINK-37384          
1 69460U 26127T   26192.88241651  .00254288  00000+0  16042-2 0  9991
2 69460  53.1580 139.2003 0001283 122.6778 237.4367 15.75373230  5300
STARLINK-37707          
1 69461U 26127U   26192.24374593  .00209857  00000+0  13364-2 0  9990
2 69461  53.1587 142.3254 0000888  74.9556 285.1563 15.75290685  5203
